COSMOS 2361             
1 25590U 98076A   08317.82855058  .00000061  00000-0  50548-4 0  8814
2 25590  82.9303 274.8905 0031084 328.2594  31.6689 13.72695071495341
COSMOS 2378             
1 26818U 01023A   08317.38097202  .00000025  00000-0  11408-4 0  8782
2 26818  82.9249 302.5435 0031645 296.2440  63.5471 13.73729137372561
COSMOS 2389             
1 27436U 02026A   08317.73402683  .00000049  00000-0  35514-4 0  6008
2 27436  82.9490 242.6854 0045808 183.1344 176.9536 13.74727027324237
COSMOS 2398             
1 27818U 03023A   08316.75088427  .00000020  00000-0  55634-5 0  4662
2 27818  82.9488 188.9498 0031495 154.9661 205.3028 13.71948957272430
COSMOS 2407             
1 28380U 04028A   08317.28781788  .00000037  00000-0  22891-4 0  2824
2 28380  82.9579 151.3329 0038162 216.0122 143.8470 13.75837057216362
COSMOS 2414             
1 28521U 05002A   08317.37321227  .00000048  00000-0  27392-4 0  1857
2 28521  82.9506 220.9211 0038939 284.1220  75.5629 13.87339326193033
COSMOS 2429             
1 32052U 07038A   08317.50821940 -.00000012  00000-0 -28869-4 0  3736
2 32052  82.9772 259.4992 0038456 170.2268 189.9644 13.74686957 58797
